STARLINK-2217           
1 48568U 21041R   25351.13576332  .00000716  00000+0  66950-4 0  9998
2 48568  53.0553 142.2182 0001291  91.6772 268.4365 15.06397140252750
STARLINK-2219           
1 48569U 21041S   25350.69713945  .00000704  00000+0  66149-4 0  9999
2 48569  53.0542 144.1850 0001242  96.6301 263.4829 15.06393595252694
STARLINK-2220           
1 48570U 21041T   25351.14959377  .00001557  00000+0  12338-3 0  9990
2 48570  53.0537 152.1538 0001227  85.6559 274.4570 15.06404778252611
STARLINK-2221           
1 48571U 21041U   25351.15695885  .00000776  00000+0  70986-4 0  9999
2 48571  53.0550 152.1219 0001484  85.3261 274.7898 15.06400308252627
STARLINK-2222           
1 48572U 21041V   25350.75520708  .00004688  00000+0  33360-3 0  9996
2 48572  53.0548 153.9239 0001376  92.5604 267.5543 15.06374753252561
STARLINK-2224           
1 48573U 21041W   25351.13208035  .00001709  00000+0  13360-3 0  9995
2 48573  53.0552 142.2332 0001351  75.9980 284.1159 15.06404450252754
STARLINK-2225           
1 48574U 21041X   25351.03532447  .00000037  00000+0  21379-4 0  9995
2 48574  53.0566 112.7529 0001301  88.4032 271.7106 15.06401452253161
STARLINK-2227           
1 48575U 21041Y   25351.05102513  .00003034  00000+0  22248-3 0  9990
2 48575  53.0559 102.9143 0001238  90.3026 269.8105 15.06405101253310
STARLINK-2228           
1 48576U 21041Z   25351.05144326 -.00000543  00000+0 -17554-4 0  9998
2 48576  53.0557 117.5928 0001210  86.5516 273.5611 15.06392335253108
STARLINK-2231           
1 48577U 21041AA  25350.75246122  .00000360  00000+0  43029-4 0  9993
2 48577  53.0554 144.2094 0001073  86.5143 273.5969 15.06397742252696
STARLINK-2232           
1 48578U 21041AB  25351.15426399  .00000035  00000+0  21246-4 0  9991
2 48578  53.0539 142.6450 0001290  85.3259 274.7878 15.06395707252752
STARLINK-2234           
1 48580U 21041AD  25351.34632250  .00002185  00000+0  16552-3 0  9991
2 48580  53.0557 116.2805 0001230  95.8599 264.2531 15.06400999253147
STARLINK-2235           
1 48581U 21041AE  25350.64323426  .00000992  00000+0  85455-4 0  9999
2 48581  53.0554 109.4381 0001140  90.7677 269.3443 15.06397468253187
STARLINK-2236           
1 48582U 21041AF  25351.35463561 -.00001182  00000+0 -60462-4 0  9999
2 48582  53.0566 106.3942 0001219  80.4133 279.6994 15.06412733253289
STARLINK-2237           
1 48583U 21041AG  25351.16064291 -.00000279  00000+0  18477-6 0  9992
2 48583  53.0537 152.1030 0001297  91.7024 268.4114 15.06394496252627
STARLINK-2238           
1 48584U 21041AH  25350.73675795  .00000111  00000+0  26354-4 0  9997
2 48584  53.0533 154.0047 0001291  89.7969 270.3168 15.06398912252552
