[{"OBJECT_NAME":"STARLINK-2217","OBJECT_ID":"2021-041R","EPOCH":"2025-12-17T03:15:29.950848","MEAN_MOTION":15.0639714,"ECCENTRICITY":0.00012914,"INCLINATION":53.0553,"RA_OF_ASC_NODE":142.2182,"ARG_OF_PERICENTER":91.6772,"MEAN_ANOMALY":268.4365,"EPHEMERIS_TYPE":0,"CLASSIFICATION_TYPE":"U","NORAD_CAT_ID":48568,"ELEMENT_SET_NO":999,"REV_AT_EPOCH":25275,"BSTAR":6.6950163e-5,"MEAN_MOTION_DOT":7.16e-6,"MEAN_MOTION_DDOT":0},{"OBJECT_NAME":"STARLINK-2219","OBJECT_ID":"2021-041S","EPOCH":"2025-12-16T16:43:52.848480","MEAN_MOTION":15.06393595,"ECCENTRICITY":0.00012427,"INCLINATION":53.0542,"RA_OF_ASC_NODE":144.185,"ARG_OF_PERICENTER":96.6301,"MEAN_ANOMALY":263.4829,"EPHEMERIS_TYPE":0,"CLASSIFICATION_TYPE":"U","NORAD_CAT_ID":48569,"ELEMENT_SET_NO":999,"REV_AT_EPOCH":25269,"BSTAR":6.614872e-5,"MEAN_MOTION_DOT":7.04e-6,"MEAN_MOTION_DDOT":0},{"OBJECT_NAME":"STARLINK-2220","OBJECT_ID":"2021-041T","EPOCH":"2025-12-17T03:35:24.901728","MEAN_MOTION":15.06404778,"ECCENTRICITY":0.00012277,"INCLINATION":53.0537,"RA_OF_ASC_NODE":152.1538,"ARG_OF_PERICENTER":85.6559,"MEAN_ANOMALY":274.457,"EPHEMERIS_TYPE":0,"CLASSIFICATION_TYPE":"U","NORAD_CAT_ID":48570,"ELEMENT_SET_NO":999,"REV_AT_EPOCH":25261,"BSTAR":0.00012337816,"MEAN_MOTION_DOT":1.557e-5,"MEAN_MOTION_DDOT":0},{"OBJECT_NAME":"STARLINK-2221","OBJECT_ID":"2021-041U","EPOCH":"2025-12-17T03:46:01.244640","MEAN_MOTION":15.06400308,"ECCENTRICITY":0.00014846,"INCLINATION":53.055,"RA_OF_ASC_NODE":152.1219,"ARG_OF_PERICENTER":85.3261,"MEAN_ANOMALY":274.7898,"EPHEMERIS_TYPE":0,"CLASSIFICATION_TYPE":"U","NORAD_CAT_ID":48571,"ELEMENT_SET_NO":999,"REV_AT_EPOCH":25262,"BSTAR":7.0986321e-5,"MEAN_MOTION_DOT":7.76e-6,"MEAN_MOTION_DDOT":0},{"OBJECT_NAME":"STARLINK-2222","OBJECT_ID":"2021-041V","EPOCH":"2025-12-16T18:07:29.891712","MEAN_MOTION":15.06374753,"ECCENTRICITY":0.00013766,"INCLINATION":53.0548,"RA_OF_ASC_NODE":153.9239,"ARG_OF_PERICENTER":92.5604,"MEAN_ANOMALY":267.5543,"EPHEMERIS_TYPE":0,"CLASSIFICATION_TYPE":"U","NORAD_CAT_ID":48572,"ELEMENT_SET_NO":999,"REV_AT_EPOCH":25256,"BSTAR":0.00033359777,"MEAN_MOTION_DOT":4.688e-5,"MEAN_MOTION_DDOT":0},{"OBJECT_NAME":"STARLINK-2224","OBJECT_ID":"2021-041W","EPOCH":"2025-12-17T03:10:11.742240","MEAN_MOTION":15.0640445,"ECCENTRICITY":0.00013515,"INCLINATION":53.0552,"RA_OF_ASC_NODE":142.2332,"ARG_OF_PERICENTER":75.998,"MEAN_ANOMALY":284.1159,"EPHEMERIS_TYPE":0,"CLASSIFICATION_TYPE":"U","NORAD_CAT_ID":48573,"ELEMENT_SET_NO":999,"REV_AT_EPOCH":25275,"BSTAR":0.00013359656,"MEAN_MOTION_DOT":1.709e-5,"MEAN_MOTION_DDOT":0},{"OBJECT_NAME":"STARLINK-2225","OBJECT_ID":"2021-041X","EPOCH":"2025-12-17T00:50:52.034208","MEAN_MOTION":15.06401452,"ECCENTRICITY":0.00013013,"INCLINATION":53.0566,"RA_OF_ASC_NODE":112.7529,"ARG_OF_PERICENTER":88.4032,"MEAN_ANOMALY":271.7106,"EPHEMERIS_TYPE":0,"CLASSIFICATION_TYPE":"U","NORAD_CAT_ID":48574,"ELEMENT_SET_NO":999,"REV_AT_EPOCH":25316,"BSTAR":2.1378569e-5,"MEAN_MOTION_DOT":3.7e-7,"MEAN_MOTION_DDOT":0},{"OBJECT_NAME":"STARLINK-2227","OBJECT_ID":"2021-041Y","EPOCH":"2025-12-17T01:13:28.571232","MEAN_MOTION":15.06405101,"ECCENTRICITY":0.00012381,"INCLINATION":53.0559,"RA_OF_ASC_NODE":102.9143,"ARG_OF_PERICENTER":90.3026,"MEAN_ANOMALY":269.8105,"EPHEMERIS_TYPE":0,"CLASSIFICATION_TYPE":"U","NORAD_CAT_ID":48575,"ELEMENT_SET_NO":999,"REV_AT_EPOCH":25331,"BSTAR":0.00022247522,"MEAN_MOTION_DOT":3.034e-5,"MEAN_MOTION_DDOT":0},{"OBJECT_NAME":"STARLINK-2228","OBJECT_ID":"2021-041Z","EPOCH":"2025-12-17T01:14:04.697664","MEAN_MOTION":15.06392335,"ECCENTRICITY":0.00012104,"INCLINATION":53.0557,"RA_OF_ASC_NODE":117.5928,"ARG_OF_PERICENTER":86.5516,"MEAN_ANOMALY":273.5611,"EPHEMERIS_TYPE":0,"CLASSIFICATION_TYPE":"U","NORAD_CAT_ID":48576,"ELEMENT_SET_NO":999,"REV_AT_EPOCH":25310,"BSTAR":-1.7554454e-5,"MEAN_MOTION_DOT":-5.43e-6,"MEAN_MOTION_DDOT":0},{"OBJECT_NAME":"STARLINK-2231","OBJECT_ID":"2021-041AA","EPOCH":"2025-12-16T18:03:32.649408","MEAN_MOTION":15.06397742,"ECCENTRICITY":0.00010732,"INCLINATION":53.0554,"RA_OF_ASC_NODE":144.2094,"ARG_OF_PERICENTER":86.5143,"MEAN_ANOMALY":273.5969,"EPHEMERIS_TYPE":0,"CLASSIFICATION_TYPE":"U","NORAD_CAT_ID":48577,"ELEMENT_SET_NO":999,"REV_AT_EPOCH":25269,"BSTAR":4.3028904e-5,"MEAN_MOTION_DOT":3.6e-6,"MEAN_MOTION_DDOT":0},{"OBJECT_NAME":"STARLINK-2232","OBJECT_ID":"2021-041AB","EPOCH":"2025-12-17T03:42:08.408736","MEAN_MOTION":15.06395707,"ECCENTRICITY":0.000129,"INCLINATION":53.0539,"RA_OF_ASC_NODE":142.645,"ARG_OF_PERICENTER":85.3259,"MEAN_ANOMALY":274.7878,"EPHEMERIS_TYPE":0,"CLASSIFICATION_TYPE":"U","NORAD_CAT_ID":48578,"ELEMENT_SET_NO":999,"REV_AT_EPOCH":25275,"BSTAR":2.1246303e-5,"MEAN_MOTION_DOT":3.5e-7,"MEAN_MOTION_DDOT":0},{"OBJECT_NAME":"STARLINK-2234","OBJECT_ID":"2021-041AD","EPOCH":"2025-12-17T08:18:42.264000","MEAN_MOTION":15.06400999,"ECCENTRICITY":0.00012303,"INCLINATION":53.0557,"RA_OF_ASC_NODE":116.2805,"ARG_OF_PERICENTER":95.8599,"MEAN_ANOMALY":264.2531,"EPHEMERIS_TYPE":0,"CLASSIFICATION_TYPE":"U","NORAD_CAT_ID":48580,"ELEMENT_SET_NO":999,"REV_AT_EPOCH":25314,"BSTAR":0.00016551618,"MEAN_MOTION_DOT":2.185e-5,"MEAN_MOTION_DDOT":0},{"OBJECT_NAME":"STARLINK-2235","OBJECT_ID":"2021-041AE","EPOCH":"2025-12-16T15:26:15.440064","MEAN_MOTION":15.06397468,"ECCENTRICITY":0.00011408,"INCLINATION":53.0554,"RA_OF_ASC_NODE":109.4381,"ARG_OF_PERICENTER":90.7677,"MEAN_ANOMALY":269.3443,"EPHEMERIS_TYPE":0,"CLASSIFICATION_TYPE":"U","NORAD_CAT_ID":48581,"ELEMENT_SET_NO":999,"REV_AT_EPOCH":25318,"BSTAR":8.5455096e-5,"MEAN_MOTION_DOT":9.92e-6,"MEAN_MOTION_DDOT":0},{"OBJECT_NAME":"STARLINK-2236","OBJECT_ID":"2021-041AF","EPOCH":"2025-12-17T08:30:40.516704","MEAN_MOTION":15.06412733,"ECCENTRICITY":0.00012197,"INCLINATION":53.0566,"RA_OF_ASC_NODE":106.3942,"ARG_OF_PERICENTER":80.4133,"MEAN_ANOMALY":279.6994,"EPHEMERIS_TYPE":0,"CLASSIFICATION_TYPE":"U","NORAD_CAT_ID":48582,"ELEMENT_SET_NO":999,"REV_AT_EPOCH":25328,"BSTAR":-6.046238e-5,"MEAN_MOTION_DOT":-1.182e-5,"MEAN_MOTION_DDOT":0},{"OBJECT_NAME":"STARLINK-2237","OBJECT_ID":"2021-041AG","EPOCH":"2025-12-17T03:51:19.547424","MEAN_MOTION":15.06394496,"ECCENTRICITY":0.00012973,"INCLINATION":53.0537,"RA_OF_ASC_NODE":152.103,"ARG_OF_PERICENTER":91.7024,"MEAN_ANOMALY":268.4114,"EPHEMERIS_TYPE":0,"CLASSIFICATION_TYPE":"U","NORAD_CAT_ID":48583,"ELEMENT_SET_NO":999,"REV_AT_EPOCH":25262,"BSTAR":1.84769e-7,"MEAN_MOTION_DOT":-2.79e-6,"MEAN_MOTION_DDOT":0},{"OBJECT_NAME":"STARLINK-2238","OBJECT_ID":"2021-041AH","EPOCH":"2025-12-16T17:40:55.886880","MEAN_MOTION":15.06398912,"ECCENTRICITY":0.00012911,"INCLINATION":53.0533,"RA_OF_ASC_NODE":154.0047,"ARG_OF_PERICENTER":89.7969,"MEAN_ANOMALY":270.3168,"EPHEMERIS_TYPE":0,"CLASSIFICATION_TYPE":"U","NORAD_CAT_ID":48584,"ELEMENT_SET_NO":999,"REV_AT_EPOCH":25255,"BSTAR":2.6354472e-5,"MEAN_MOTION_DOT":1.11e-6,"MEAN_MOTION_DDOT":0}]
